{"type": "FeatureCollection", "features": [ {"type": "Feature", "properties": {"norad_id": 67081, "name": "STARLINK-35864", "group": "last-30-days", "lat": -12.384873091565556, "lon": -142.22350739981593, "alt_km": 308.7305554338491, "timestamp": "2025-12-22T11:33:19.158336+00:00", "meta": {"OBJECT_NAME": "STARLINK-35864", "OBJECT_ID": "2025-298G", "EPOCH": "2025-12-22T04:00:01.998720", "MEAN_MOTION": 15.88999508, "ECCENTRICITY": 0.0004035, "INCLINATION": 69.9977, "RA_OF_ASC_NODE": 223.2744, "ARG_OF_PERICENTER": 274.2636, "MEAN_ANOMALY": 72.5845, "EPHEMERIS_TYPE": 0, "CLASSIFICATION_TYPE": "U", "NORAD_CAT_ID": 67081, "ELEMENT_SET_NO": 999, "REV_AT_EPOCH": 249, "BSTAR": -0.0008909, "MEAN_MOTION_DOT": -0.00248073, "MEAN_MOTION_DDOT": 0}, "tle": {"line1": "1 67081U 25298G   25356.16668980 -.00248073  00000+0 -89090-3 0  9997", "line2": "2 67081  69.9977 223.2744 0004035 274.2636  72.5845 15.88999508  2495"}}, "geometry": {"type": "Point", "coordinates": [-142.22350739981593, -12.384873091565556]}}, {"type": "Feature", "properties": {"norad_id": 67082, "name": "STARLINK-36035", "group": "last-30-days", "lat": -10.599539395568623, "lon": -141.54689576659, "alt_km": 308.66480057917124, "timestamp": "2025-12-22T11:33:19.158349+00:00", "meta": {"OBJECT_NAME": "STARLINK-36035", "OBJECT_ID": "2025-298H", "EPOCH": "2025-12-22T04:00:01.998720", "MEAN_MOTION": 15.88928371, "ECCENTRICITY": 0.0004653, "INCLINATION": 69.9976, "RA_OF_ASC_NODE": 223.2719, "ARG_OF_PERICENTER": 264.1126, "MEAN_ANOMALY": 84.5921, "EPHEMERIS_TYPE": 0, "CLASSIFICATION_TYPE": "U", "NORAD_CAT_ID": 67082, "ELEMENT_SET_NO": 999, "REV_AT_EPOCH": 249, "BSTAR": 0.00029338, "MEAN_MOTION_DOT": 0.00084047, "MEAN_MOTION_DDOT": 0}, "tle": {"line1": "1 67082U 25298H   25356.16668980  .00084047  00000+0  29338-3 0  9994", "line2": "2 67082  69.9976 223.2719 0004653 264.1126  84.5921 15.88928371  2493"}}, "geometry": {"type": "Point", "coordinates": [-141.54689576659, -10.599539395568623]}}, {"type": "Feature", "properties": {"norad_id": 67083, "name": "STARLINK-36170", "group": "last-30-days", "lat": -8.660942416427995, "lon": -140.8215959614139, "alt_km": 308.4240853741121, "timestamp": "2025-12-22T11:33:19.158361+00:00", "meta": {"OBJECT_NAME": "STARLINK-36170", "OBJECT_ID": "2025-298J", "EPOCH": "2025-12-22T04:00:01.998720", "MEAN_MOTION": 15.88979429, "ECCENTRICITY": 0.0004695, "INCLINATION": 69.9974, "RA_OF_ASC_NODE": 223.2693, "ARG_OF_PERICENTER": 264.0233, "MEAN_ANOMALY": 86.6904, "EPHEMERIS_TYPE": 0, "CLASSIFICATION_TYPE": "U", "NORAD_CAT_ID": 67083, "ELEMENT_SET_NO": 999, "REV_AT_EPOCH": 249, "BSTAR": 0.00029346, "MEAN_MOTION_DOT": 0.00082562, "MEAN_MOTION_DDOT": 6.3129e-06}, "tle": {"line1": "1 67083U 25298J   25356.16668980  .00082562  63129-5  29346-3 0  9991", "line2": "2 67083  69.9974 223.2693 0004695 264.0233  86.6904 15.88979429  2491"}}, "geometry": {"type": "Point", "coordinates": [-140.8215959614139, -8.660942416427995]}}, {"type": "Feature", "properties": {"norad_id": 67084, "name": "STARLINK-36166", "group": "last-30-days", "lat": -6.845115426413019, "lon": -140.1495192608385, "alt_km": 308.0418687605825, "timestamp": "2025-12-22T11:33:19.158373+00:00", "meta": {"OBJECT_NAME": "STARLINK-36166", "OBJECT_ID": "2025-298K", "EPOCH": "2025-12-22T04:00:01.998720", "MEAN_MOTION": 15.89027064, "ECCENTRICITY": 0.0004663, "INCLINATION": 69.9974, "RA_OF_ASC_NODE": 223.2668, "ARG_OF_PERICENTER": 266.3863, "MEAN_ANOMALY": 86.205, "EPHEMERIS_TYPE": 0, "CLASSIFICATION_TYPE": "U", "NORAD_CAT_ID": 67084, "ELEMENT_SET_NO": 999, "REV_AT_EPOCH": 243, "BSTAR": 0.0003315, "MEAN_MOTION_DOT": 0.00093645, "MEAN_MOTION_DDOT": 7.0018e-06}, "tle": {"line1": "1 67084U 25298K   25356.16668980  .00093645  70018-5  33150-3 0  9999", "line2": "2 67084  69.9974 223.2668 0004663 266.3863  86.2050 15.89027064  2435"}}, "geometry": {"type": "Point", "coordinates": [-140.1495192608385, -6.845115426413019]}}, {"type": "Feature", "properties": {"norad_id": 67085, "name": "STARLINK-35794", "group": "last-30-days", "lat": -5.060728911306799, "lon": -139.49414421655882, "alt_km": 307.83798740714974, "timestamp": "2025-12-22T11:33:19.158383+00:00", "meta": {"OBJECT_NAME": "STARLINK-35794", "OBJECT_ID": "2025-298L", "EPOCH": "2025-12-22T04:00:01.998720", "MEAN_MOTION": 15.89073402, "ECCENTRICITY": 0.0004751, "INCLINATION": 69.9974, "RA_OF_ASC_NODE": 223.2646, "ARG_OF_PERICENTER": 265.7607, "MEAN_ANOMALY": 88.6775, "EPHEMERIS_TYPE": 0, "CLASSIFICATION_TYPE": "U", "NORAD_CAT_ID": 67085, "ELEMENT_SET_NO": 999, "REV_AT_EPOCH": 249, "BSTAR": 0.00033135, "MEAN_MOTION_DOT": 0.00093826, "MEAN_MOTION_DDOT": 7.0158e-06}, "tle": {"line1": "1 67085U 25298L   25356.16668980  .00093826  70158-5  33135-3 0  9999", "line2": "2 67085  69.9974 223.2646 0004751 265.7607  88.6775 15.89073402  2492"}}, "geometry": {"type": "Point", "coordinates": [-139.49414421655882, -5.060728911306799]}}, {"type": "Feature", "properties": {"norad_id": 67086, "name": "STARLINK-35841", "group": "last-30-days", "lat": -3.016716863154513, "lon": -138.7476689804126, "alt_km": 307.70638981123466, "timestamp": "2025-12-22T11:33:19.158396+00:00", "meta": {"OBJECT_NAME": "STARLINK-35841", "OBJECT_ID": "2025-298M", "EPOCH": "2025-12-22T04:00:01.998720", "MEAN_MOTION": 15.89155368, "ECCENTRICITY": 0.0004534, "INCLINATION": 69.9973, "RA_OF_ASC_NODE": 223.2625, "ARG_OF_PERICENTER": 264.0929, "MEAN_ANOMALY": 92.46, "EPHEMERIS_TYPE": 0, "CLASSIFICATION_TYPE": "U", "NORAD_CAT_ID": 67086, "ELEMENT_SET_NO": 999, "REV_AT_EPOCH": 249, "BSTAR": 4.9825e-05, "MEAN_MOTION_DOT": 0.00013118, "MEAN_MOTION_DDOT": 3.9717e-06}, "tle": {"line1": "1 67086U 25298M   25356.16668980  .00013118  39717-5  49825-4 0  9996", "line2": "2 67086  69.9973 223.2625 0004534 264.0929  92.4600 15.89155368  2499"}}, "geometry": {"type": "Point", "coordinates": [-138.7476689804126, -3.016716863154513]}}, {"type": "Feature", "properties": {"norad_id": 67087, "name": "STARLINK-35842", "group": "last-30-days", "lat": -1.439172253188038, "lon": -138.17406743295442, "alt_km": 306.66457038026965, "timestamp": "2025-12-22T11:33:19.158405+00:00", "meta": {"OBJECT_NAME": "STARLINK-35842", "OBJECT_ID": "2025-298N", "EPOCH": "2025-12-22T04:00:01.998720", "MEAN_MOTION": 15.89188485, "ECCENTRICITY": 0.0004656, "INCLINATION": 69.9973, "RA_OF_ASC_NODE": 223.2605, "ARG_OF_PERICENTER": 279.0205, "MEAN_ANOMALY": 79.1653, "EPHEMERIS_TYPE": 0, "CLASSIFICATION_TYPE": "U", "NORAD_CAT_ID": 67087, "ELEMENT_SET_NO": 999, "REV_AT_EPOCH": 249, "BSTAR": 0.00012546, "MEAN_MOTION_DOT": 0.00034965, "MEAN_MOTION_DDOT": 4.3495e-06}, "tle": {"line1": "1 67087U 25298N   25356.16668980  .00034965  43495-5  12546-3 0  9997", "line2": "2 67087  69.9973 223.2605 0004656 279.0205  79.1653 15.89188485  2492"}}, "geometry": {"type": "Point", "coordinates": [-138.17406743295442, -1.439172253188038]}}, {"type": "Feature", "properties": {"norad_id": 67088, "name": "STARLINK-35882", "group": "last-30-days", "lat": 0.5297813308002551, "lon": -137.4593078935711, "alt_km": 306.7178625649003, "timestamp": "2025-12-22T11:33:19.158415+00:00", "meta": {"OBJECT_NAME": "STARLINK-35882", "OBJECT_ID": "2025-298P", "EPOCH": "2025-12-22T04:00:01.998720", "MEAN_MOTION": 15.89211727, "ECCENTRICITY": 0.0003577, "INCLINATION": 69.9975, "RA_OF_ASC_NODE": 223.2579, "ARG_OF_PERICENTER": 273.518, "MEAN_ANOMALY": 86.7349, "EPHEMERIS_TYPE": 0, "CLASSIFICATION_TYPE": "U", "NORAD_CAT_ID": 67088, "ELEMENT_SET_NO": 999, "REV_AT_EPOCH": 249, "BSTAR": 0.000254, "MEAN_MOTION_DOT": 0.00072111, "MEAN_MOTION_DDOT": 5.7516e-06}, "tle": {"line1": "1 67088U 25298P   25356.16668980  .00072111  57516-5  25400-3 0  9995", "line2": "2 67088  69.9975 223.2579 0003577 273.5180  86.7349 15.89211727  2499"}}, "geometry": {"type": "Point", "coordinates": [-137.4593078935711, 0.5297813308002551]}}, {"type": "Feature", "properties": {"norad_id": 67089, "name": "STARLINK-35763", "group": "last-30-days", "lat": 2.556048270421385, "lon": -136.7227791765436, "alt_km": 306.4634727307266, "timestamp": "2025-12-22T11:33:19.158425+00:00", "meta": {"OBJECT_NAME": "STARLINK-35763", "OBJECT_ID": "2025-298Q", "EPOCH": "2025-12-22T04:00:01.998720", "MEAN_MOTION": 15.89266247, "ECCENTRICITY": 0.0003637, "INCLINATION": 69.9973, "RA_OF_ASC_NODE": 223.2557, "ARG_OF_PERICENTER": 271.6395, "MEAN_ANOMALY": 90.7069, "EPHEMERIS_TYPE": 0, "CLASSIFICATION_TYPE": "U", "NORAD_CAT_ID": 67089, "ELEMENT_SET_NO": 999, "REV_AT_EPOCH": 249, "BSTAR": 0.00025423, "MEAN_MOTION_DOT": 0.0007238, "MEAN_MOTION_DDOT": 5.7671e-06}, "tle": {"line1": "1 67089U 25298Q   25356.16668980  .00072380  57671-5  25423-3 0  9991", "line2": "2 67089  69.9973 223.2557 0003637 271.6395  90.7069 15.89266247  2499"}}, "geometry": {"type": "Point", "coordinates": [-136.7227791765436, 2.556048270421385]}}, {"type": "Feature", "properties": {"norad_id": 67090, "name": "STARLINK-36060", "group": "last-30-days", "lat": 4.22767571148732, "lon": -136.11390162677833, "alt_km": 306.42294372818924, "timestamp": "2025-12-22T11:33:19.158435+00:00", "meta": {"OBJECT_NAME": "STARLINK-36060", "OBJECT_ID": "2025-298R", "EPOCH": "2025-12-22T04:00:01.998720", "MEAN_MOTION": 15.89273412, "ECCENTRICITY": 0.0004072, "INCLINATION": 69.997, "RA_OF_ASC_NODE": 223.2533, "ARG_OF_PERICENTER": 267.8225, "MEAN_ANOMALY": 96.2769, "EPHEMERIS_TYPE": 0, "CLASSIFICATION_TYPE": "U", "NORAD_CAT_ID": 67090, "ELEMENT_SET_NO": 999, "REV_AT_EPOCH": 243, "BSTAR": 0.00038056, "MEAN_MOTION_DOT": 0.00109011, "MEAN_MOTION_DDOT": 8.1137e-06}, "tle": {"line1": "1 67090U 25298R   25356.16668980  .00109011  81137-5  38056-3 0  9995", "line2": "2 67090  69.9970 223.2533 0004072 267.8225  96.2769 15.89273412  2439"}}, "geometry": {"type": "Point", "coordinates": [-136.11390162677833, 4.22767571148732]}}]}